start=new Date('2022-05-31T00:00:00.000Z').valueOf();
sats=[{"CENTER_NAME":"EARTH","FILE":"3472994","MEAN_MOTION":"15.06393947","SEMIMAJOR_AXIS":"6925.367","ARG_OF_PERICENTER":"53.5725","OBJECT_NAME":"STARLINK-1760","OBJECT_ID":"2020-062S","BSTAR":"0.00001650900000","TLE_LINE2":"2 46341  53.0570  67.0886 0001919  53.5725 306.5440 15.06393947 96758","MEAN_MOTION_DOT":"-0.00000036","REV_AT_EPOCH":"9675","DECAY_DATE":null,"REF_FRAME":"TEME","GP_ID":"204974871","EPHEMERIS_TYPE":"0","RCS_SIZE":"LARGE","MEAN_ANOMALY":"306.5440","ELEMENT_SET_NO":"999","LAUNCH_DATE":"2020-09-03","OBJECT_TYPE":"PAYLOAD","APOAPSIS":"548.561","TIME_SYSTEM":"UTC","INCLINATION":"53.0570","COUNTRY_CODE":"US","CLASSIFICATION_TYPE":"U","SITE":"AFETR","TLE_LINE1":"1 46341U 20062S   22150.71304689 -.00000036  00000-0  16509-4 0  9991","PERIAPSIS":"545.903","EPOCH":"2022-05-30T17:06:47.251296","PERIOD":"95.593","MEAN_MOTION_DDOT":"0.0000000000000","MEAN_ELEMENT_THEORY":"SGP4","ECCENTRICITY":"0.00019190","RA_OF_ASC_NODE":"67.0886","NORAD_CAT_ID":"46341"},{"DECAY_DATE":null,"REV_AT_EPOCH":"9666","MEAN_MOTION_DOT":"-0.00001910","GP_ID":"204945111","REF_FRAME":"TEME","OBJECT_ID":"2020-062T","OBJECT_NAME":"STARLINK-1762","TLE_LINE2":"2 46342  53.0574  86.5666 0001424  46.3574 313.7533 15.06374511 96667","BSTAR":"-0.00010943000000","SEMIMAJOR_AXIS":"6925.427","MEAN_MOTION":"15.06374511","ARG_OF_PERICENTER":"46.3574","CENTER_NAME":"EARTH","FILE":"3472505","MEAN_ELEMENT_THEORY":"SGP4","MEAN_MOTION_DDOT":"0.0000000000000","NORAD_CAT_ID":"46342","RA_OF_ASC_NODE":"86.5666","ECCENTRICITY":"0.00014240","PERIOD":"95.594","EPOCH":"2022-05-30T19:48:42.165792","PERIAPSIS":"546.305","TLE_LINE1":"1 46342U 20062T   22150.82548803 -.00001910  00000-0 -10943-3 0  9990","SITE":"AFETR","CLASSIFICATION_TYPE":"U","RCS_SIZE":"LARGE","EPHEMERIS_TYPE":"0","INCLINATION":"53.0574","COUNTRY_CODE":"US","TIME_SYSTEM":"UTC","APOAPSIS":"548.278","OBJECT_TYPE":"PAYLOAD","LAUNCH_DATE":"2020-09-03","MEAN_ANOMALY":"313.7533","ELEMENT_SET_NO":"999"},{"OBJECT_ID":"2020-062U","OBJECT_NAME":"STARLINK-1764","BSTAR":"-0.00018543000000","TLE_LINE2":"2 46343  53.0572  66.9182 0001749  56.5513 303.5643 15.06390156 96759","REV_AT_EPOCH":"9675","DECAY_DATE":null,"MEAN_MOTION_DOT":"-0.00003042","REF_FRAME":"TEME","GP_ID":"204975869","CENTER_NAME":"EARTH","FILE":"3472994","SEMIMAJOR_AXIS":"6925.379","MEAN_MOTION":"15.06390156","ARG_OF_PERICENTER":"56.5513","EPOCH":"2022-05-30T18:05:11.537664","PERIOD":"95.593","MEAN_ELEMENT_THEORY":"SGP4","MEAN_MOTION_DDOT":"0.0000000000000","RA_OF_ASC_NODE":"66.9182","NORAD_CAT_ID":"46343","ECCENTRICITY":"0.00017490","RCS_SIZE":"LARGE","EPHEMERIS_TYPE":"0","APOAPSIS":"548.455","TIME_SYSTEM":"UTC","COUNTRY_CODE":"US","INCLINATION":"53.0572","ELEMENT_SET_NO":"999","MEAN_ANOMALY":"303.5643","LAUNCH_DATE":"2020-09-03","OBJECT_TYPE":"PAYLOAD","TLE_LINE1":"1 46343U 20062U   22150.75360576 -.00003042  00000-0 -18543-3 0  9994","PERIAPSIS":"546.032","SITE":"AFETR","CLASSIFICATION_TYPE":"U"},{"EPHEMERIS_TYPE":"0","RCS_SIZE":"LARGE","MEAN_ANOMALY":"314.5638","ELEMENT_SET_NO":"999","LAUNCH_DATE":"2020-09-03","OBJECT_TYPE":"PAYLOAD","TIME_SYSTEM":"UTC","APOAPSIS":"548.735","COUNTRY_CODE":"US","INCLINATION":"53.0580","CLASSIFICATION_TYPE":"U","SITE":"AFETR","TLE_LINE1":"1 46344U 20062V   22150.50665000 -.00002478  00000-0 -14755-3 0  9991","PERIAPSIS":"545.807","EPOCH":"2022-05-30T12:09:34.560000","PERIOD":"95.593","MEAN_MOTION_DDOT":"0.0000000000000","MEAN_ELEMENT_THEORY":"SGP4","ECCENTRICITY":"0.00021140","RA_OF_ASC_NODE":"68.0212","NORAD_CAT_ID":"46344","CENTER_NAME":"EARTH","FILE":"3472495","MEAN_MOTION":"15.06381166","SEMIMAJOR_AXIS":"6925.406","ARG_OF_PERICENTER":"45.5524","OBJECT_NAME":"STARLINK-1765","OBJECT_ID":"2020-062V","TLE_LINE2":"2 46344  53.0580  68.0212 0002114  45.5524 314.5638 15.06381166 96716","BSTAR":"-0.00014755000000","MEAN_MOTION_DOT":"-0.00002478","REV_AT_EPOCH":"9671","DECAY_DATE":null,"REF_FRAME":"TEME","GP_ID":"204939900"},{"OBJECT_NAME":"STARLINK-1767","OBJECT_ID":"2020-062W","TLE_LINE2":"2 46345  53.0554  88.5832 0001750  39.9996 320.1121 15.06697964 96411","BSTAR":"-0.00335030000000","MEAN_MOTION_DOT":"-0.00050236","DECAY_DATE":null,"REV_AT_EPOCH":"9641","GP_ID":"204940151","REF_FRAME":"TEME","CENTER_NAME":"EARTH","FILE":"3472495","MEAN_MOTION":"15.06697964","SEMIMAJOR_AXIS":"6924.435","ARG_OF_PERICENTER":"39.9996","PERIOD":"95.573","EPOCH":"2022-05-30T08:59:55.483008","MEAN_MOTION_DDOT":"0.0000000000000","MEAN_ELEMENT_THEORY":"SGP4","ECCENTRICITY":"0.00017500","NORAD_CAT_ID":"46345","RA_OF_ASC_NODE":"88.5832","EPHEMERIS_TYPE":"0","RCS_SIZE":"LARGE","OBJECT_TYPE":"PAYLOAD","LAUNCH_DATE":"2020-09-03","MEAN_ANOMALY":"320.1121","ELEMENT_SET_NO":"999","COUNTRY_CODE":"US","INCLINATION":"53.0554","TIME_SYSTEM":"UTC","APOAPSIS":"547.512","CLASSIFICATION_TYPE":"U","SITE":"AFETR","PERIAPSIS":"545.089","TLE_LINE1":"1 46345U 20062W   22150.37494772 -.00050236  00000-0 -33503-2 0  9999"},{"ARG_OF_PERICENTER":"20.0434","MEAN_MOTION":"15.34268539","SEMIMAJOR_AXIS":"6841.231","FILE":"3472506","CENTER_NAME":"EARTH","GP_ID":"204945123","REF_FRAME":"TEME","MEAN_MOTION_DOT":"0.00007226","REV_AT_EPOCH":"9881","DECAY_DATE":null,"BSTAR":"0.00022571000000","TLE_LINE2":"2 46346  53.0526 293.8605 0003720  20.0434 340.0712 15.34268539 98813","OBJECT_NAME":"STARLINK-1546","OBJECT_ID":"2020-062X","CLASSIFICATION_TYPE":"U","SITE":"AFETR","TLE_LINE1":"1 46346U 20062X   22150.75700015  .00007226  00000-0  22571-3 0  9995","PERIAPSIS":"460.551","ELEMENT_SET_NO":"999","MEAN_ANOMALY":"340.0712","LAUNCH_DATE":"2020-09-03","OBJECT_TYPE":"PAYLOAD","APOAPSIS":"465.641","TIME_SYSTEM":"UTC","INCLINATION":"53.0526","COUNTRY_CODE":"US","EPHEMERIS_TYPE":"0","RCS_SIZE":"LARGE","ECCENTRICITY":"0.00037200","RA_OF_ASC_NODE":"293.8605","NORAD_CAT_ID":"46346","MEAN_MOTION_DDOT":"0.0000000000000","MEAN_ELEMENT_THEORY":"SGP4","EPOCH":"2022-05-30T18:10:04.812960","PERIOD":"93.856"},{"RA_OF_ASC_NODE":"41.3970","NORAD_CAT_ID":"46347","ECCENTRICITY":"0.00016780","MEAN_ELEMENT_THEORY":"SGP4","MEAN_MOTION_DDOT":"0.0000000000000","EPOCH":"2022-05-30T20:45:04.801824","PERIOD":"95.593","TLE_LINE1":"1 46347U 20062Y   22150.86463891 -.00000588  00000-0 -20607-4 0  9991","PERIAPSIS":"546.076","CLASSIFICATION_TYPE":"U","SITE":"AFETR","TIME_SYSTEM":"UTC","APOAPSIS":"548.400","INCLINATION":"53.0564","COUNTRY_CODE":"US","MEAN_ANOMALY":"303.1520","ELEMENT_SET_NO":"999","LAUNCH_DATE":"2020-09-03","OBJECT_TYPE":"PAYLOAD","RCS_SIZE":"LARGE","EPHEMERIS_TYPE":"0","REF_FRAME":"TEME","GP_ID":"204976369","REV_AT_EPOCH":"9710","DECAY_DATE":null,"MEAN_MOTION_DOT":"-0.00000588","BSTAR":"-0.00002060700000","TLE_LINE2":"2 46347  53.0564  41.3970 0001678  56.9630 303.1520 15.06392071 97109","OBJECT_ID":"2020-062Y","OBJECT_NAME":"STARLINK-1547","ARG_OF_PERICENTER":"56.9630","SEMIMAJOR_AXIS":"6925.373","MEAN_MOTION":"15.06392071","FILE":"3472994","CENTER_NAME":"EARTH"},{"EPOCH":"2022-05-30T12:14:53.316384","PERIOD":"95.594","RA_OF_ASC_NODE":"67.9843","NORAD_CAT_ID":"46348","ECCENTRICITY":"0.00016120","MEAN_MOTION_DDOT":"0.0000000000000","MEAN_ELEMENT_THEORY":"SGP4","APOAPSIS":"548.417","TIME_SYSTEM":"UTC","COUNTRY_CODE":"US","INCLINATION":"53.0558","MEAN_ANOMALY":"314.2186","ELEMENT_SET_NO":"999","LAUNCH_DATE":"2020-09-03","OBJECT_TYPE":"PAYLOAD","RCS_SIZE":"LARGE","EPHEMERIS_TYPE":"0","TLE_LINE1":"1 46348U 20062Z   22150.51033931 -.00003395  00000-0 -20931-3 0  9990","PERIAPSIS":"546.184","CLASSIFICATION_TYPE":"U","SITE":"AFETR","TLE_LINE2":"2 46348  53.0558  67.9843 0001612  45.8935 314.2186 15.06371543 96717","BSTAR":"-0.00020931000000","OBJECT_ID":"2020-062Z","OBJECT_NAME":"STARLINK-1553","REF_FRAME":"TEME","GP_ID":"204939401","REV_AT_EPOCH":"9671","DECAY_DATE":null,"MEAN_MOTION_DOT":"-0.00003395","FILE":"3472495","CENTER_NAME":"EARTH","ARG_OF_PERICENTER":"45.8935","SEMIMAJOR_AXIS":"6925.436","MEAN_MOTION":"15.06371543"},{"OBJECT_TYPE":"PAYLOAD","LAUNCH_DATE":"2020-09-03","MEAN_ANOMALY":"318.2474","ELEMENT_SET_NO":"999","COUNTRY_CODE":"US","INCLINATION":"53.0558","TIME_SYSTEM":"UTC","APOAPSIS":"548.337","EPHEMERIS_TYPE":"0","RCS_SIZE":"LARGE","SITE":"AFETR","CLASSIFICATION_TYPE":"U","PERIAPSIS":"546.196","TLE_LINE1":"1 46349U 20062AA  22150.10902817 -.00003912  00000-0 -24397-3 0  9999","PERIOD":"95.593","EPOCH":"2022-05-30T02:37:00.033888","ECCENTRICITY":"0.00015460","NORAD_CAT_ID":"46349","RA_OF_ASC_NODE":"44.8025","MEAN_MOTION_DDOT":"0.0000000000000","MEAN_ELEMENT_THEORY":"SGP4","FILE":"3472495","CENTER_NAME":"EARTH","ARG_OF_PERICENTER":"41.8633","MEAN_MOTION":"15.06382826","SEMIMAJOR_AXIS":"6925.401","TLE_LINE2":"2 46349  53.0558  44.8025 0001546  41.8633 318.2474 15.06382826 97004","BSTAR":"-0.00024397000000","OBJECT_NAME":"STARLINK-1575","OBJECT_ID":"2020-062AA","GP_ID":"204939652","REF_FRAME":"TEME","MEAN_MOTION_DOT":"-0.00003912","DECAY_DATE":null,"REV_AT_EPOCH":"9700"},{"PERIOD":"95.593","EPOCH":"2022-05-30T20:52:23.331936","NORAD_CAT_ID":"46350","RA_OF_ASC_NODE":"86.3904","ECCENTRICITY":"0.00014610","MEAN_MOTION_DDOT":"0.0000000000000","MEAN_ELEMENT_THEORY":"SGP4","INCLINATION":"53.0559","COUNTRY_CODE":"US","TIME_SYSTEM":"UTC","APOAPSIS":"548.277","OBJECT_TYPE":"PAYLOAD","LAUNCH_DATE":"2020-09-03","ELEMENT_SET_NO":"999","MEAN_ANOMALY":"321.6765","RCS_SIZE":"LARGE","EPHEMERIS_TYPE":"0","PERIAPSIS":"546.253","TLE_LINE1":"1 46350U 20062AB  22150.86971449 -.00002162  00000-0 -12635-3 0  9999","SITE":"AFETR","CLASSIFICATION_TYPE":"U","TLE_LINE2":"2 46350  53.0559  86.3904 0001461  38.4327 321.6765 15.06383254 96491","BSTAR":"-0.00012635000000","OBJECT_ID":"2020-062AB","OBJECT_NAME":"STARLINK-1617","GP_ID":"204975621","REF_FRAME":"TEME","DECAY_DATE":null,"REV_AT_EPOCH":"9649","MEAN_MOTION_DOT":"-0.00002162","FILE":"3472994","CENTER_NAME":"EARTH","ARG_OF_PERICENTER":"38.4327","SEMIMAJOR_AXIS":"6925.400","MEAN_MOTION":"15.06383254"}];
